#Pass ID: 20260122_231720_AQUA
#Satellite: AQUA
#Configuration: AQUA
#almurnet v.1.7.20240730
#Start time: 2026-01-22 23:17:20

#Version: 2.2.20231116
#Station: R3.0SM8_Murmansk_STILSPACE
#Location: 33.092731 lon 68.902999 lat
#TLE: 1 27424U 02022A   26022.49486490  .00002153  00000+0  44069-3 0  9997
#TLE: 2 27424  98.4099 349.0485 0001970  69.5876  43.4746 14.61847233261984

#Version: 2.2.20231116
#Station: R3.0SM8_Murmansk_STILSPACE
#Location: 33.092731 lon 68.902999 lat
#TLE: 1 27424U 02022A   26022.49486490  .00002153  00000+0  44069-3 0  9997
#TLE: 2 27424  98.4099 349.0485 0001970  69.5876  43.4746 14.61847233261984

#Time	Az	El	Az	El	Level	Level2	SNR	BER	BlckErr	Temp	State	Recorded	gain1	gain2
#2026-01-22 23:17:20.476000	device inactive

#Closed at: 2026-01-22 23:17:21
#Recorded file [0 MB]: 